NORAD_CAT_ID,OBJECT_NAME,OBJECT_TYPE,EPOCH,MEAN_MOTION,ECCENTRICITY,INCLINATION,RA_OF_ASC_NODE,ARG_OF_PERICENTER,MEAN_ANOMALY,BSTAR,MEAN_MOTION_DOT,MEAN_MOTION_DDOT,TLE_LINE0,TLE_LINE1,TLE_LINE2,SEMIMAJOR_AXIS,PERIOD,APOGEE,PERIGEE,DECAYED
54772.0,STARLINK-5452,PAYLOAD,2024-03-03 01:47:17,15.08837696,0.0001551,53.217,96.0592,90.319,269.798,9.5762e-05,1.236e-05,0.0,0 STARLINK-5452,1 54772U 22175Q   24063.07450939  .00001236  00000-0  95762-4 0  9999,2 54772  53.2170  96.0592 0001551  90.3190 269.7980 15.08837696 66769,6917.887,95.438,540.825,538.679,0.0
54772.0,STARLINK-5452,PAYLOAD,2024-03-03 09:44:13,15.08843311,0.0001514,53.2168,94.5719,91.5355,268.581,0.00010232,1.341e-05,0.0,0 STARLINK-5452,1 54772U 22175Q   24063.40570642  .00001341  00000-0  10232-3 0  9995,2 54772  53.2168  94.5719 0001514  91.5355 268.5810 15.08843311 68970,6917.87,95.437,540.783,538.688,0.0
54772.0,STARLINK-5452,PAYLOAD,2024-03-04 07:59:36,15.0884918,0.000161,53.2167,90.4099,83.2186,276.8989,0.00010617,1.402e-05,0.0,0 STARLINK-5452,1 54772U 22175Q   24064.33306221  .00001402  00000-0  10617-3 0  9993,2 54772  53.2167  90.4099 0001610  83.2186 276.8989 15.08849180 66957,6917.852,95.437,540.831,538.604,0.0
54772.0,STARLINK-5452,PAYLOAD,2024-03-05 07:50:24,15.08834724,0.0001419,53.2163,85.9462,87.7285,272.3869,-3.0462e-05,-7.73e-06,0.0,0 STARLINK-5452,1 54772U 22175Q   24065.32667593 -.00000773  00000-0 -30462-4 0  9998,2 54772  53.2163  85.9462 0001419  87.7285 272.3869 15.08834724 69265,6917.897,95.438,540.743,538.78,0.0
54772.0,STARLINK-5452,PAYLOAD,2024-03-06 10:51:57,15.08843721,0.0001594,53.2167,80.8902,101.7001,258.417,8.1072e-06,-1.59e-06,0.0,0 STARLINK-5452,1 54772U 22175Q   24066.45275315 -.00000159  00000-0  81072-5 0  9991,2 54772  53.2167  80.8902 0001594 101.7001 258.4170 15.08843721 67275,6917.869,95.437,540.837,538.631,0.0
54772.0,STARLINK-5452,PAYLOAD,2024-03-07 04:21:12,15.08834888,0.0001538,53.217,77.6185,105.6833,254.4329,0.00016182,2.288e-05,0.0,0 STARLINK-5452,1 54772U 22175Q   24067.18139800  .00002288  00000-0  16182-3 0  9992,2 54772  53.2170  77.6185 0001538 105.6833 254.4329 15.08834888 67388,6917.896,95.438,540.825,538.697,0.0
54772.0,STARLINK-5452,PAYLOAD,2024-03-07 07:31:59,15.08836962,0.0001394,53.2164,77.0258,98.7239,261.3911,0.00016825,2.391e-05,0.0,0 STARLINK-5452,1 54772U 22175Q   24067.31387868  .00002391  00000-0  16825-3 0  9995,2 54772  53.2164  77.0258 0001394  98.7239 261.3911 15.08836962 69569,6917.89,95.438,540.719,538.79,0.0
54772.0,STARLINK-5452,PAYLOAD,2024-03-08 05:47:22,15.08843095,0.0001357,53.2169,72.8612,92.8016,267.3132,0.00011382,1.524e-05,0.0,0 STARLINK-5452,1 54772U 22175Q   24068.24123796  .00001524  00000-0  11382-3 0  9996,2 54772  53.2169  72.8612 0001357  92.8016 267.3132 15.08843095 67540,6917.871,95.437,540.675,538.797,0.0
54772.0,STARLINK-5452,PAYLOAD,2024-03-08 07:22:46,15.08844404,0.0001354,53.2166,72.5652,95.5988,264.5158,0.00011573,1.555e-05,0.0,0 STARLINK-5452,1 54772U 22175Q   24068.30747688  .00001555  00000-0  11573-3 0  9991,2 54772  53.2166  72.5652 0001354  95.5988 264.5158 15.08844404 69716,6917.867,95.437,540.669,538.795,0.0
54772.0,STARLINK-5452,PAYLOAD,2024-03-08 16:55:04,15.08851077,0.0001497,53.2177,70.7819,104.3608,255.755,0.00016314,2.31e-05,0.0,0 STARLINK-5452,1 54772U 22175Q   24068.70491033  .00002310  00000-0  16314-3 0  9993,2 54772  53.2177  70.7819 0001497 104.3608 255.7550 15.08851077 67618,6917.847,95.437,540.747,538.676,0.0
54772.0,STARLINK-5452,PAYLOAD,2024-03-09 05:38:10,15.08836344,0.0001625,53.2183,68.4041,103.4053,256.712,4.9034e-05,4.92e-06,0.0,0 STARLINK-5452,1 54772U 22175Q   24069.23484411  .00000492  00000-0  49034-4 0  9999,2 54772  53.2183  68.4041 0001625 103.4053 256.7120 15.08836344 67695,6917.892,95.438,540.881,538.632,0.0
54772.0,STARLINK-5452,PAYLOAD,2024-03-09 07:13:33,15.08836884,0.0001623,53.2184,68.1075,105.9077,254.2094,5.7577e-05,6.28e-06,0.0,0 STARLINK-5452,1 54772U 22175Q   24069.30108378  .00000628  00000-0  57577-4 0  9994,2 54772  53.2184  68.1075 0001623 105.9077 254.2094 15.08836884 69864,6917.89,95.438,540.878,538.632,0.0
54772.0,STARLINK-5452,PAYLOAD,2024-03-10 05:28:57,15.08842088,0.0001541,53.2175,63.9434,99.8538,260.2628,7.7071e-05,9.39e-06,0.0,0 STARLINK-5452,1 54772U 22175Q   24070.22843767  .00000939  00000-0  77071-4 0  9991,2 54772  53.2175  63.9434 0001541  99.8538 260.2628 15.08842088 67847,6917.874,95.437,540.805,538.673,0.0
54772.0,STARLINK-5452,PAYLOAD,2024-03-10 07:04:20,15.08842821,0.0001468,53.2172,63.6455,98.5041,261.6118,9.142e-05,1.167e-05,0.0,0 STARLINK-5452,1 54772U 22175Q   24070.29467735  .00001167  00000-0  91420-4 0  9993,2 54772  53.2172  63.6455 0001468  98.5041 261.6118 15.08842821 70014,6917.872,95.437,540.752,538.721,0.0
54772.0,STARLINK-5452,PAYLOAD,2024-03-10 22:58:12,15.08827817,0.000127,53.2177,60.67,99.6047,260.5089,3.0041e-05,1.9e-06,0.0,0 STARLINK-5452,1 54772U 22175Q   24070.95708341  .00000190  00000-0  30041-4 0  9994,2 54772  53.2177  60.6700 0001270  99.6047 260.5089 15.08827817 70112,6917.918,95.438,540.661,538.904,0.0
54772.0,STARLINK-5452,PAYLOAD,2024-03-11 05:19:44,15.08835337,0.0001307,53.2167,59.4821,96.504,263.6101,0.00012041,1.629e-05,0.0,0 STARLINK-5452,1 54772U 22175Q   24071.22204237  .00001629  00000-0  12041-3 0  9997,2 54772  53.2167  59.4821 0001307  96.5040 263.6101 15.08835337 67998,6917.895,95.438,540.664,538.855,0.0
54772.0,STARLINK-5452,PAYLOAD,2024-03-11 06:55:07,15.08840851,0.0001443,53.2168,59.1842,92.5121,267.6036,0.0001448,2.017e-05,0.0,0 STARLINK-5452,1 54772U 22175Q   24071.28827970  .00002017  00000-0  14480-3 0  9999,2 54772  53.2168  59.1842 0001443  92.5121 267.6036 15.08840851 70167,6917.878,95.438,540.741,538.745,0.0
54772.0,STARLINK-5452,PAYLOAD,2024-03-11 16:27:25,15.08851408,0.0001374,53.216,57.398,92.0541,268.0608,0.00013019,1.785e-05,0.0,0 STARLINK-5452,1 54772U 22175Q   24071.68571255  .00001785  00000-0  13019-3 0  9993,2 54772  53.2160  57.3980 0001374  92.0541 268.0608 15.08851408 68062,6917.846,95.437,540.661,538.76,0.0
54772.0,STARLINK-5452,PAYLOAD,2024-03-12 05:10:31,15.0884391,0.0001571,53.218,55.0187,104.516,255.6007,0.00011586,1.557e-05,0.0,0 STARLINK-5452,1 54772U 22175Q   24072.21563723  .00001557  00000-0  11586-3 0  9998,2 54772  53.2180  55.0187 0001571 104.5160 255.6007 15.08843910 68146,6917.868,95.437,540.82,538.647,0.0
54772.0,STARLINK-5452,PAYLOAD,2024-03-12 22:39:45,15.08844057,0.0001598,53.2167,51.7491,86.2529,273.8646,0.00023018,3.378e-05,0.0,0 STARLINK-5452,1 54772U 22175Q   24072.94427858  .00003378  00000-0  23018-3 0  9992,2 54772  53.2167  51.7491 0001598  86.2529 273.8646 15.08844057 70413,6917.868,95.437,540.838,538.628,0.0
54772.0,STARLINK-5452,PAYLOAD,2024-03-13 08:12:04,15.08847096,0.0001438,53.2168,49.9635,94.2166,265.8991,0.00020031,2.902e-05,0.0,0 STARLINK-5452,1 54772U 22175Q   24073.34171599  .00002902  00000-0  20031-3 0  9999,2 54772  53.2168  49.9635 0001438  94.2166 265.8991 15.08847096 68318,6917.859,95.437,540.718,538.729,0.0
54772.0,STARLINK-5452,PAYLOAD,2024-03-13 22:30:32,15.08843356,0.000146,53.2166,47.2867,95.997,264.1188,0.00019158,2.763e-05,0.0,0 STARLINK-5452,1 54772U 22175Q   24073.93787776  .00002763  00000-0  19158-3 0  9997,2 54772  53.2166  47.2867 0001460  95.9970 264.1188 15.08843356 70565,6917.87,95.437,540.745,538.725,0.0
54772.0,STARLINK-5452,PAYLOAD,2024-03-14 04:52:04,15.08857055,0.0001312,53.2165,46.0998,85.2539,274.8603,-0.00038738,-6.451e-05,0.0,0 STARLINK-5452,1 54772U 22175Q   24074.20282886 -.00006451  00000-0 -38738-3 0  9995,2 54772  53.2165  46.0998 0001312  85.2539 274.8603 15.08857055 70601,6917.828,95.436,540.601,538.786,0.0
54772.0,STARLINK-5452,PAYLOAD,2024-03-14 08:02:51,15.08845681,0.0001347,53.2163,45.5047,85.597,274.5176,2.9812e-05,1.87e-06,0.0,0 STARLINK-5452,1 54772U 22175Q   24074.33531554  .00000187  00000-0  29812-4 0  9990,2 54772  53.2163  45.5047 0001347  85.5970 274.5176 15.08845681 68463,6917.863,95.437,540.66,538.796,0.0
54772.0,STARLINK-5452,PAYLOAD,2024-03-14 22:21:19,15.08836632,0.0001352,53.2167,42.8273,93.2805,266.8342,7.9479e-06,-1.61e-06,0.0,0 STARLINK-5452,1 54772U 22175Q   24074.93148066 -.00000161  00000-0  79479-5 0  9996,2 54772  53.2167  42.8273 0001352  93.2805 266.8342 15.08836632 70713,6917.891,95.438,540.691,538.82,0.0
54772.0,STARLINK-5452,PAYLOAD,2024-03-15 04:42:52,15.08833444,0.0001375,53.2178,41.638,100.2726,259.8421,-1.5498e-05,-5.35e-06,0.0,0 STARLINK-5452,1 54772U 22175Q   24075.19644581 -.00000535  00000-0 -15498-4 0  9994,2 54772  53.2178  41.6380 0001375 100.2726 259.8421 15.08833444 68598,6917.9,95.438,540.717,538.814,0.0
54772.0,STARLINK-5452,PAYLOAD,2024-03-15 07:53:39,15.08834102,0.0001322,53.2179,41.043,95.614,264.5003,-2.1389e-05,-6.28e-06,0.0,0 STARLINK-5452,1 54772U 22175Q   24075.32892592 -.00000628  00000-0 -21389-4 0  9995,2 54772  53.2179  41.0430 0001322  95.6140 264.5003 15.08834102 70772,6917.898,95.438,540.678,538.849,0.0
54772.0,STARLINK-5452,PAYLOAD,2024-03-16 02:58:16,15.08836564,0.0001333,53.2184,37.4743,82.0422,278.0721,4.2929e-05,3.95e-06,0.0,0 STARLINK-5452,1 54772U 22175Q   24076.12380563  .00000395  00000-0  42929-4 0  9996,2 54772  53.2184  37.4743 0001333  82.0422 278.0721 15.08836564 70893,6917.891,95.438,540.678,538.834,0.0
54772.0,STARLINK-5452,PAYLOAD,2024-03-16 20:27:31,15.08834796,0.000134,53.2189,34.2046,101.5767,258.5376,8.7107e-05,1.098e-05,0.0,0 STARLINK-5452,1 54772U 22175Q   24076.85244732  .00001098  00000-0  87107-4 0  9991,2 54772  53.2189  34.2046 0001340 101.5767 258.5376 15.08834796 68842,6917.896,95.438,540.688,538.834,0.0
54772.0,STARLINK-5452,PAYLOAD,2024-03-17 05:59:50,15.08836365,0.0001281,53.2183,32.4209,93.6734,266.4405,0.0001312,1.801e-05,0.0,0 STARLINK-5452,1 54772U 22175Q   24077.24988711  .00001801  00000-0  13120-3 0  9992,2 54772  53.2183  32.4209 0001281  93.6734 266.4405 15.08836365 71069,6917.891,95.438,540.643,538.87,0.0
